NORAD_CAT_ID,OBJECT_NAME,OBJECT_TYPE,EPOCH,MEAN_MOTION,ECCENTRICITY,INCLINATION,RA_OF_ASC_NODE,ARG_OF_PERICENTER,MEAN_ANOMALY,BSTAR,MEAN_MOTION_DOT,MEAN_MOTION_DDOT,TLE_LINE0,TLE_LINE1,TLE_LINE2,SEMIMAJOR_AXIS,PERIOD,APOGEE,PERIGEE,DECAYED
52453.0,STARLINK-3872,PAYLOAD,2022-05-31 22:00:00,15.60057312,0.000153,53.2173,140.4959,36.0256,342.9408,-0.0094298,-0.00713036,0.0,0 STARLINK-3872,1 52453U 22049C   22151.91667824 -.00713036  00000-0 -94298-2 0  9996,2 52453  53.2173 140.4959 0001530  36.0256 342.9408 15.60057312  4188,6765.628000000002,92.304,388.529,386.458,0.0
52453.0,STARLINK-3872,PAYLOAD,2022-06-01 10:13:21,15.60104851,0.0001789,53.2157,138.02,22.2042,337.905,-0.0044676,-0.00353984,0.0,0 STARLINK-3872,1 52453U 22049C   22152.42594091 -.00353984  00000-0 -44676-2 0  9995,2 52453  53.2157 138.0200 0001789  22.2042 337.9050 15.60104851  4265,6765.491,92.301,388.566,386.146,0.0
52453.0,STARLINK-3872,PAYLOAD,2022-06-01 20:00:01,15.5865599,0.0001659,53.2173,136.0533,36.9528,90.8105,-0.0099718,-0.00714516,0.0,0 STARLINK-3872,1 52453U 22049C   22152.83334491 -.00714516  00000-0 -99718-2 0  9995,2 52453  53.2173 136.0533 0001659  36.9528  90.8105 15.58655990  4322,6769.683000000001,92.387,392.671,390.425,0.0
52453.0,STARLINK-3872,PAYLOAD,2022-06-02 15:28:07,15.58454268,0.0001312,53.2164,132.1227,36.3073,323.8029,-0.0043967,-0.00328157,0.0,0 STARLINK-3872,1 52453U 22049C   22153.64453067 -.00328157  00000-0 -43967-2 0  9993,2 52453  53.2164 132.1227 0001312  36.3073 323.8029 15.58454268  4457,6770.267,92.399,393.02,391.244,0.0
52453.0,STARLINK-3872,PAYLOAD,2022-06-03 05:19:05,15.58607653,0.0005444,53.2163,129.3284,167.2295,192.8857,-0.0013214,-0.00102438,0.0,0 STARLINK-3872,1 52453U 22049C   22154.22159179 -.00102438  00000-0 -13214-2 0  9999,2 52453  53.2163 129.3284 0005444 167.2295 192.8857 15.58607653  4548,6769.823,92.39,395.37300000000016,388.002,0.0
52453.0,STARLINK-3872,PAYLOAD,2022-06-03 11:29:59,15.5709095,0.0001918,53.217,128.0923,18.3419,341.7663,-0.0048013,-0.00339934,0.0,0 STARLINK-3872,1 52453U 22049C   22154.47915956 -.00339934  00000-0 -48013-2 0  9997,2 52453  53.2170 128.0923 0001918  18.3419 341.7663 15.57090950  4587,6774.218000000003,92.48,397.383,394.784,0.0
52453.0,STARLINK-3872,PAYLOAD,2022-06-04 01:22:11,15.56405116,0.0001629999999999,53.2164,125.3051,16.6489,343.4577,-0.0045663,-0.00316062,0.0,0 STARLINK-3872,1 52453U 22049C   22155.05707761 -.00316062  00000-0 -45663-2 0  9990,2 52453  53.2164 125.3051 0001630  16.6489 343.4577 15.56405116  4677,6776.208000000001,92.521,399.17800000000005,396.969,0.0
52453.0,STARLINK-3872,PAYLOAD,2022-06-04 12:10:26,15.55604031,0.0001569,53.2165,123.1387,22.5701,337.5381,-0.0048937,-0.00328269,0.0,0 STARLINK-3872,1 52453U 22049C   22155.50725166 -.00328269  00000-0 -48937-2 0  9998,2 52453  53.2165 123.1387 0001569  22.5701 337.5381 15.55604031  4741,6778.534000000002,92.569,401.463,399.336,0.0
52453.0,STARLINK-3872,PAYLOAD,2022-06-05 22:00:00,15.52409035,0.0001418,53.2177,116.3765,47.253,279.7618,-0.012538,-0.00712394,0.0,0 STARLINK-3872,1 52453U 22049C   22156.91667824 -.00712394  00000-0 -12538-1 0  9993,2 52453  53.2177 116.3765 0001418  47.2530 279.7618 15.52409035  4963,6787.831999999999,92.759,410.659,408.734,0.0
52453.0,STARLINK-3872,PAYLOAD,2022-06-06 14:00:01,15.51388938,0.000155,53.2174,113.1821,39.8017,53.8688,-0.013017,-0.00721941,0.0,0 STARLINK-3872,1 52453U 22049C   22157.58334491 -.00721941  00000-0 -13017-1 0  9999,2 52453  53.2174 113.1821 0001550  39.8017  53.8688 15.51388938  1302,6790.807,92.82,413.724,411.619,0.0
52453.0,STARLINK-3872,PAYLOAD,2022-06-06 22:00:00,15.50878014,0.0001803,53.2175,111.5858,37.6602,118.4196,-0.0132139999999999,-0.00719761,0.0,0 STARLINK-3872,1 52453U 22049C   22157.91667824 -.00719761  00000-0 -13214-1 0  9991,2 52453  53.2175 111.5858 0001803  37.6602 118.4196 15.50878014  5115,6792.2980000000025,92.851,415.388,412.939,0.0
52453.0,STARLINK-3872,PAYLOAD,2022-06-07 14:00:01,15.49887945,0.0001605,53.2175,108.398,44.8832,234.1783,-9.0595e-05,-5.59e-05,0.0,0 STARLINK-3872,1 52453U 22049C   22158.58334491 -.00005590  00000-0 -90595-4 0  9994,2 52453  53.2175 108.3980 0001605  44.8832 234.1783 15.49887945  5221,6795.191,92.91,418.146,415.965,0.0
52453.0,STARLINK-3872,PAYLOAD,2022-06-07 22:00:00,15.49853472,0.0001738,53.2171,106.8005,45.9457,294.0379,0.0010155,0.00057545,0.0,0 STARLINK-3872,1 52453U 22049C   22158.91667824  .00057545  00000-0  10155-2 0  9997,2 52453  53.2171 106.8005 0001738  45.9457 294.0379 15.49853472  1309,6795.291,92.912,418.337,415.975,0.0
52453.0,STARLINK-3872,PAYLOAD,2022-06-08 14:00:01,15.50040542,0.0001715,53.2175,103.6178,40.3259,61.4389,-0.014733,-0.00774217,0.0,0 STARLINK-3872,1 52453U 22049C   22159.58334491 -.00774217  00000-0 -14733-1 0  9991,2 52453  53.2175 103.6178 0001715  40.3259  61.4389 15.50040542  5379,6794.745,92.901,417.775,415.444,0.0
52453.0,STARLINK-3872,PAYLOAD,2022-06-08 22:00:01,15.49486416,0.0001926,53.2177,102.0266,34.1882,128.4032,-0.01388,-0.00719487,0.0,0 STARLINK-3872,1 52453U 22049C   22159.91668981 -.00719487  00000-0 -13880-1 0  9992,2 52453  53.2177 102.0266 0001926  34.1882 128.4032 15.49486416  1309,6796.364000000001,92.934,419.538,416.92,0.0
52453.0,STARLINK-3872,PAYLOAD,2022-06-09 06:00:00,15.48974519,0.0001964,53.2175,100.4371,34.6538,187.9968,-0.014065,-0.00716243,0.0,0 STARLINK-3872,1 52453U 22049C   22160.25001157 -.00716243  00000-0 -14065-1 0  9990,2 52453  53.2175 100.4371 0001964  34.6538 187.9968 15.48974519  5476,6797.861999999999,92.965,421.062,418.392,0.0
52453.0,STARLINK-3872,PAYLOAD,2022-06-09 14:00:01,15.48468685,0.0001624,53.2175,98.8455,40.9588,241.2027,-0.014471,-0.0072327,0.0,0 STARLINK-3872,1 52453U 22049C   22160.58334491 -.00723270  00000-0 -14471-1 0  9995,2 52453  53.2175  98.8455 0001624  40.9588 241.2027 15.48468685  1307,6799.342,92.995,422.311,420.103,0.0
52453.0,STARLINK-3872,PAYLOAD,2022-06-09 22:00:00,15.47958912,0.0001710999999999,53.2177,97.257,34.2073,306.8525,-0.014733,-0.00723302,0.0,0 STARLINK-3872,1 52453U 22049C   22160.91667824 -.00723302  00000-0 -14733-1 0  9998,2 52453  53.2177  97.2570 0001711  34.2073 306.8525 15.47958912  1309,6800.835,93.026,423.86300000000006,421.536,0.0
52453.0,STARLINK-3872,PAYLOAD,2022-06-10 08:00:01,15.47319464,0.0001683,53.2171,95.2738,39.5428,104.2783,-0.014982,-0.00719541,0.0,0 STARLINK-3872,1 52453U 22049C   22161.33334491 -.00719541  00000-0 -14982-1 0  9992,2 52453  53.2171  95.2738 0001683  39.5428 104.2783 15.47319464  5647,6802.708000000001,93.064,425.718,423.42800000000005,0.0
52453.0,STARLINK-3872,PAYLOAD,2022-06-10 14:00:01,15.46936125,0.0001602,53.2174,94.0828,37.7011,59.3187,-0.0151669999999999,-0.00718798,0.0,0 STARLINK-3872,1 52453U 22049C   22161.58334491 -.00718798  00000-0 -15167-1 0  9998,2 52453  53.2174  94.0828 0001602  37.7011  59.3187 15.46936125  1301,6803.831999999999,93.087,426.787,424.607,0.0
52453.0,STARLINK-3872,PAYLOAD,2022-06-10 22:00:00,15.46426686,0.0001746,53.2174,92.4979,40.2971,113.7823,-0.015454,-0.00719513,0.0,0 STARLINK-3872,1 52453U 22049C   22161.91667824 -.00719513  00000-0 -15454-1 0  9999,2 52453  53.2174  92.4979 0001746  40.2971 113.7823 15.46426686  1301,6805.326,93.118,428.379,426.003,0.0
52453.0,STARLINK-3872,PAYLOAD,2022-06-11 14:00:01,15.45406858,0.0001585,53.2175,89.331,44.3489,222.0128,-0.016007,-0.00719423,0.0,0 STARLINK-3872,1 52453U 22049C   22162.58334491 -.00719423  00000-0 -16007-1 0  9999,2 52453  53.2175  89.3310 0001585  44.3489 222.0128 15.45406858  5849,6808.32,93.179,431.264,429.106,0.0
52453.0,STARLINK-3872,PAYLOAD,2022-06-11 22:00:00,15.44897928,0.0001595999999999,53.2176,87.7502,41.0451,280.5375,-0.016331,-0.0072111999999999,0.0,0 STARLINK-3872,1 52453U 22049C   22162.91667824 -.00721120  00000-0 -16331-1 0  9992,2 52453  53.2176  87.7502 0001596  41.0451 280.5375 15.44897928  1301,6809.815,93.21,432.767,430.593,0.0
52453.0,STARLINK-3872,PAYLOAD,2022-06-12 14:00:01,15.43875915,0.0001628,53.2175,84.5905,34.8522,35.337,-0.016831,-0.00717929,0.0,0 STARLINK-3872,1 52453U 22049C   22163.58334491 -.00717929  00000-0 -16831-1 0  9994,2 52453  53.2175  84.5905 0001628  34.8522  35.3370 15.43875915  5998,6812.82,93.272,435.794,433.576,0.0
52453.0,STARLINK-3872,PAYLOAD,2022-06-12 22:00:00,15.433672,0.0001733,53.2176,83.0135,38.1872,85.3844,-0.017175,-0.00719895,0.0,0 STARLINK-3872,1 52453U 22049C   22163.91667824 -.00719895  00000-0 -17175-1 0  9996,2 52453  53.2176  83.0135 0001733  38.1872  85.3844 15.43367200  1305,6814.316999999999,93.302,437.36300000000006,435.001,0.0
52453.0,STARLINK-3872,PAYLOAD,2022-06-13 14:00:01,15.42345737,0.0001851,53.2174,79.8607,36.0775,192.4236,-0.017693,-0.00716687,0.0,0 STARLINK-3872,1 52453U 22049C   22164.58334491 -.00716687  00000-0 -17693-1 0  9992,2 52453  53.2174  79.8607 0001851  36.0775 192.4236 15.42345737  6142,6817.325,93.364,440.452,437.92800000000005,0.0
52453.0,STARLINK-3872,PAYLOAD,2022-06-13 22:00:00,15.41836829,0.0001871,53.2176,78.2876,35.4832,244.5618,-0.018046,-0.00718435,0.0,0 STARLINK-3872,1 52453U 22049C   22164.91667824 -.00718435  00000-0 -18046-1 0  9994,2 52453  53.2176  78.2876 0001871  35.4832 244.5618 15.41836829  1306,6818.825,93.395,441.966,439.415,0.0
52453.0,STARLINK-3872,PAYLOAD,2022-06-14 14:00:01,15.40815358,0.0001591,53.2174,75.1422,35.6361,345.6622,-0.018621,-0.00716508,0.0,0 STARLINK-3872,1 52453U 22049C   22165.58334491 -.00716508  00000-0 -18621-1 0  9997,2 52453  53.2174  75.1422 0001591  35.6361 345.6622 15.40815358  6301,6821.839,93.457,444.789,442.61800000000005,0.0
52453.0,STARLINK-3872,PAYLOAD,2022-06-14 22:00:00,15.40307516,0.000177,53.2175,73.57300000000002,33.7722,37.2311,-0.019029,-0.00719697,0.0,0 STARLINK-3872,1 52453U 22049C   22165.91667824 -.00719697  00000-0 -19029-1 0  9998,2 52453  53.2175  73.5730 0001770  33.7722  37.2311 15.40307516  1301,6823.3380000000025,93.488,446.411,443.995,0.0
